COSMOS 2426 (717)       
1 29671U 06062B   19185.75738041  .00000011  00000-0  10000-3 0  9994
2 29671  65.1160 279.7004 0018691 166.0150 217.1577  2.13103083 97477
COSMOS 2433 (720)       
1 32275U 07052A   19185.68319067 -.00000031  00000-0  10000-3 0  9996
2 32275  65.8562  40.5568 0001073 276.6080  26.1946  2.13104380 90976
COSMOS 2432 (719)       
1 32276U 07052B   19185.83009603 -.00000032  00000-0  10000-3 0  9997
2 32276  65.8699  40.6332 0010746 341.0776  25.5019  2.13103848 90987
COSMOS 2434 (721)       
1 32393U 07065A   19186.41348197  .00000007  00000-0  00000+0 0  9996
2 32393  64.7144 278.3653 0003965 129.6353 260.8699  2.13103065 89709
COSMOS 2436 (723)       
1 32395U 07065C   19185.83508872  .00000011  00000-0  10000-3 0  9991
2 32395  64.7243 278.4400 0014735 359.4116 359.7416  2.13104500 89619
COSMOS 2456 (730)       
1 36111U 09070A   19185.67883654  .00000060  00000-0  00000-0 0  9995
2 36111  64.2031 158.0258 0006440 303.0815  56.9130  2.13103049 74359
COSMOS 2457 (733)       
1 36112U 09070B   19185.66109578  .00000060  00000-0  00000+0 0  9990
2 36112  64.1856 157.9316 0005104 196.1949 275.1748  2.13101576 74355
COSMOS 2459 (731)       
1 36400U 10007A   19185.89190500 -.00000033  00000-0  10000-3 0  9998
2 36400  65.7613  39.5619 0026428 354.6347 324.1442  2.13102280 72705
COSMOS 2461 (735)       
1 36401U 10007B   19186.29274336 -.00000035  00000-0  10000-3 0  9996
2 36401  65.7547  39.5209 0008799  65.8509 110.9751  2.13102333 72713
COSMOS 2460 (732)       
1 36402U 10007C   19186.27599013 -.00000035  00000-0  10000-3 0  9997
2 36402  65.7496  39.4831 0001802  69.1274 134.6724  2.13101564 72719
COSMOS 2464 (736)       
1 37139U 10041C   19185.58303336  .00000013  00000-0  00000+0 0  9997
2 37139  64.3148 278.0071 0024051  12.5511 327.0174  2.13100726 68766
COSMOS 2474 (742)       
1 37829U 11055A   19186.38370653  .00000064  00000-0  00000+0 0  9990
2 37829  64.5242 158.8841 0010959 253.6118 143.4899  2.13101897 60364
COSMOS 2476 (744)       
1 37867U 11064A   19185.53159831  .00000061  00000-0  00000+0 0  9998
2 37867  64.5044 158.9622 0020983 244.4462 265.1014  2.13101999 59690
COSMOS 2477 (745)       
1 37868U 11064B   19185.73687464  .00000062  00000-0  00000-0 0  9991
2 37868  64.5132 159.0077 0018714 246.0455 239.6523  2.13101807 59659
COSMOS 2475 (743)       
1 37869U 11064C   19185.37561691  .00000061  00000-0  00000+0 0  9993
2 37869  64.5199 159.0185 0023236 266.0455 259.5977  2.13102171 59659
COSMOS 2485 (747)       
1 39155U 13019A   19185.51149171  .00000061  00000-0  00000-0 0  9997
2 39155  64.6736 159.1564 0021309 239.8343 299.0028  2.13102018 48162
COSMOS 2492 (754)       
1 39620U 14012A   19185.65411083 -.00000032  00000-0  10000-3 0  9990
2 39620  65.6375  39.3400 0013735 334.0837 349.2467  2.13103342 41111
COSMOS 2500 (755)       
1 40001U 14032A   19185.83252659 -.00000033  00000-0  00000-0 0  9996
2 40001  65.5752  39.2715 0004899 192.6831 128.9239  2.13102778 39337
COSMOS 2501 (702K)      
1 40315U 14075A   19185.64580760  .00000011  00000-0  00000+0 0  9991
2 40315  64.0351 279.0806 0016796 205.9431 130.2418  2.13098761 35733
COSMOS 2514 (751)       
1 41330U 16008A   19186.34329272 -.00000037  00000-0  00000+0 0  9993
2 41330  65.3768  39.2117 0008141 208.7823 326.3807  2.13103218 26519
COSMOS 2516 (753)       
1 41554U 16032A   19185.90455892  .00000009  00000-0  00000+0 0  9995
2 41554  64.2576 279.0418 0013289 214.4936 234.6667  2.13101759 24115
COSMOS 2522 (752)       
1 42939U 17055A   19186.41001785  .00000006  00000-0  00000+0 0  9991
2 42939  64.4889 279.1030 0007766 238.5491 104.8769  2.13101900 13879
COSMOS 2527 (756)       
1 43508U 18053A   19186.42941830  .00000065  00000-0  00000+0 0  9993
2 43508  64.8383 158.9000 0009186 244.6960 144.8606  2.13102669  8177
COSMOS 2529 (757)       
1 43687U 18086A   19185.51745133  .00000012  00000-0  00000+0 0  9996
2 43687  64.7010 279.1593 0009574 265.5013  68.8857  2.13102037  5164
COSMOS 2534 (758)       
1 44299U 19030A   19186.07336547  .00000009  00000-0  00000+0 0  9999
2 44299  64.7719 278.9276 0012721 285.7558 250.3346  2.13102026   828
